{"type": "FeatureCollection", "features": [ {"type": "Feature", "properties": {"norad_id": 33153, "name": "INTELSAT 25 (IS-25)", "group": "intelsat", "lat": -1.6924912214202703, "lon": -49.26653693835351, "alt_km": 35771.55752914684, "timestamp": "2025-12-19T16:54:43.918747+00:00", "meta": {"OBJECT_NAME": "INTELSAT 25 (IS-25)", "OBJECT_ID": "2008-034A", "EPOCH": "2025-12-19T06:15:59.484960", "MEAN_MOTION": 1.00270447, "ECCENTRICITY": 0.00047953, "INCLINATION": 2.2436, "RA_OF_ASC_NODE": 82.5806, "ARG_OF_PERICENTER": 186.3988, "MEAN_ANOMALY": 241.6253, "EPHEMERIS_TYPE": 0, "CLASSIFICATION_TYPE": "U", "NORAD_CAT_ID": 33153, "ELEMENT_SET_NO": 999, "REV_AT_EPOCH": 6389, "BSTAR": 0, "MEAN_MOTION_DOT": -2.01e-06, "MEAN_MOTION_DDOT": 0}, "tle": {"line1": "1 33153U 08034A   25353.26110515 -.00000201  00000+0  00000+0 0  9991", "line2": "2 33153   2.2436  82.5806 0004795 186.3988 241.6253  1.00270447 63895"}}, "geometry": {"type": "Point", "coordinates": [-49.26653693835351, -1.6924912214202703]}}, {"type": "Feature", "properties": {"norad_id": 33376, "name": "GALAXY 19 (G-19)", "group": "intelsat", "lat": -0.027797466951457205, "lon": -114.79071238839597, "alt_km": 35776.63840884413, "timestamp": "2025-12-19T16:54:43.918759+00:00", "meta": {"OBJECT_NAME": "GALAXY 19 (G-19)", "OBJECT_ID": "2008-045A", "EPOCH": "2025-12-19T06:01:51.136320", "MEAN_MOTION": 1.0027165, "ECCENTRICITY": 0.000251, "INCLINATION": 0.0168, "RA_OF_ASC_NODE": 289.9778, "ARG_OF_PERICENTER": 342.0369, "MEAN_ANOMALY": 169.5516, "EPHEMERIS_TYPE": 0, "CLASSIFICATION_TYPE": "U", "NORAD_CAT_ID": 33376, "ELEMENT_SET_NO": 999, "REV_AT_EPOCH": 6310, "BSTAR": 0, "MEAN_MOTION_DOT": -1.14e-06, "MEAN_MOTION_DDOT": 0}, "tle": {"line1": "1 33376U 08045A   25353.25128630 -.00000114  00000+0  00000+0 0  9999", "line2": "2 33376   0.0168 289.9778 0002510 342.0369 169.5516  1.00271650 63109"}}, "geometry": {"type": "Point", "coordinates": [-114.79071238839597, -0.027797466951457205]}}, {"type": "Feature", "properties": {"norad_id": 35493, "name": "FM-5", "group": "intelsat", "lat": -0.03070525537633376, "lon": -103.91037654337038, "alt_km": 35787.11829163681, "timestamp": "2025-12-19T16:54:43.918771+00:00", "meta": {"OBJECT_NAME": "FM-5", "OBJECT_ID": "2009-034A", "EPOCH": "2025-12-19T06:08:38.539968", "MEAN_MOTION": 1.00271831, "ECCENTRICITY": 9.133e-05, "INCLINATION": 0.0183, "RA_OF_ASC_NODE": 297.901, "ARG_OF_PERICENTER": 213.0729, "MEAN_ANOMALY": 303.1516, "EPHEMERIS_TYPE": 0, "CLASSIFICATION_TYPE": "U", "NORAD_CAT_ID": 35493, "ELEMENT_SET_NO": 999, "REV_AT_EPOCH": 4484, "BSTAR": 0, "MEAN_MOTION_DOT": -1.76e-06, "MEAN_MOTION_DDOT": 0}, "tle": {"line1": "1 35493U 09034A   25353.25600162 -.00000176  00000+0  00000+0 0  9993", "line2": "2 35493   0.0183 297.9010 0000913 213.0729 303.1516  1.00271831 44845"}}, "geometry": {"type": "Point", "coordinates": [-103.91037654337038, -0.03070525537633376]}}, {"type": "Feature", "properties": {"norad_id": 36097, "name": "INTELSAT 14 (IS-14)", "group": "intelsat", "lat": -0.03249432383390121, "lon": -62.75798260211868, "alt_km": 35776.438477830336, "timestamp": "2025-12-19T16:54:43.918783+00:00", "meta": {"OBJECT_NAME": "INTELSAT 14 (IS-14)", "OBJECT_ID": "2009-064A", "EPOCH": "2025-12-19T06:12:07.354944", "MEAN_MOTION": 1.00271449, "ECCENTRICITY": 0.00024374, "INCLINATION": 0.0132, "RA_OF_ASC_NODE": 348.8616, "ARG_OF_PERICENTER": 289.9965, "MEAN_ANOMALY": 217.2941, "EPHEMERIS_TYPE": 0, "CLASSIFICATION_TYPE": "U", "NORAD_CAT_ID": 36097, "ELEMENT_SET_NO": 999, "REV_AT_EPOCH": 5880, "BSTAR": 0, "MEAN_MOTION_DOT": -2.49e-06, "MEAN_MOTION_DDOT": 0}, "tle": {"line1": "1 36097U 09064A   25353.25841846 -.00000249  00000+0  00000+0 0  9994", "line2": "2 36097   0.0132 348.8616 0002437 289.9965 217.2941  1.00271449 58808"}}, "geometry": {"type": "Point", "coordinates": [-62.75798260211868, -0.03249432383390121]}}, {"type": "Feature", "properties": {"norad_id": 36106, "name": "INTELSAT 15 (IS-15)", "group": "intelsat", "lat": 0.043331095981246806, "lon": 67.39484823190044, "alt_km": 35793.73750810937, "timestamp": "2025-12-19T16:54:43.918795+00:00", "meta": {"OBJECT_NAME": "INTELSAT 15 (IS-15)", "OBJECT_ID": "2009-067A", "EPOCH": "2025-12-18T22:15:40.597344", "MEAN_MOTION": 1.00272402, "ECCENTRICITY": 0.0002124, "INCLINATION": 0.0179, "RA_OF_ASC_NODE": 357.1967, "ARG_OF_PERICENTER": 280.3625, "MEAN_ANOMALY": 229.3026, "EPHEMERIS_TYPE": 0, "CLASSIFICATION_TYPE": "U", "NORAD_CAT_ID": 36106, "ELEMENT_SET_NO": 999, "REV_AT_EPOCH": 3942, "BSTAR": 0, "MEAN_MOTION_DOT": -1.6e-06, "MEAN_MOTION_DDOT": 0}, "tle": {"line1": "1 36106U 09067A   25352.92755321 -.00000160  00000+0  00000+0 0  9995", "line2": "2 36106   0.0179 357.1967 0002124 280.3625 229.3026  1.00272402 39428"}}, "geometry": {"type": "Point", "coordinates": [67.39484823190044, 0.043331095981246806]}}, {"type": "Feature", "properties": {"norad_id": 36131, "name": "DIRECTV 12", "group": "intelsat", "lat": -0.008806583194687845, "lon": -120.49700751590183, "alt_km": 35787.27705135784, "timestamp": "2025-12-19T16:54:43.918808+00:00", "meta": {"OBJECT_NAME": "DIRECTV 12", "OBJECT_ID": "2009-075A", "EPOCH": "2025-12-18T20:43:10.822080", "MEAN_MOTION": 1.00271221, "ECCENTRICITY": 4.242e-05, "INCLINATION": 0.0364, "RA_OF_ASC_NODE": 131.9635, "ARG_OF_PERICENTER": 232.6466, "MEAN_ANOMALY": 291.1917, "EPHEMERIS_TYPE": 0, "CLASSIFICATION_TYPE": "U", "NORAD_CAT_ID": 36131, "ELEMENT_SET_NO": 999, "REV_AT_EPOCH": 4474, "BSTAR": 0, "MEAN_MOTION_DOT": -7.8e-07, "MEAN_MOTION_DDOT": 0}, "tle": {"line1": "1 36131U 09075A   25352.86331970 -.00000078  00000+0  00000+0 0  9993", "line2": "2 36131   0.0364 131.9635 0000424 232.6466 291.1917  1.00271221 44741"}}, "geometry": {"type": "Point", "coordinates": [-120.49700751590183, -0.008806583194687845]}}, {"type": "Feature", "properties": {"norad_id": 36397, "name": "INTELSAT 16 (IS-16)", "group": "intelsat", "lat": -0.03384628727873761, "lon": -93.97046930655164, "alt_km": 35778.30777069784, "timestamp": "2025-12-19T16:54:43.918820+00:00", "meta": {"OBJECT_NAME": "INTELSAT 16 (IS-16)", "OBJECT_ID": "2010-006A", "EPOCH": "2025-12-19T06:15:04.684032", "MEAN_MOTION": 1.00272178, "ECCENTRICITY": 0.0001823, "INCLINATION": 0.0098, "RA_OF_ASC_NODE": 330.8842, "ARG_OF_PERICENTER": 299.0041, "MEAN_ANOMALY": 195.8014, "EPHEMERIS_TYPE": 0, "CLASSIFICATION_TYPE": "U", "NORAD_CAT_ID": 36397, "ELEMENT_SET_NO": 999, "REV_AT_EPOCH": 5785, "BSTAR": 0, "MEAN_MOTION_DOT": -2.2e-06, "MEAN_MOTION_DDOT": 0}, "tle": {"line1": "1 36397U 10006A   25353.26047088 -.00000220  00000+0  00000+0 0  9991", "line2": "2 36397   0.0098 330.8842 0001823 299.0041 195.8014  1.00272178 57855"}}, "geometry": {"type": "Point", "coordinates": [-93.97046930655164, -0.03384628727873761]}}, {"type": "Feature", "properties": {"norad_id": 37185, "name": "XM-5", "group": "intelsat", "lat": -0.05977877603115748, "lon": -132.94815240743523, "alt_km": 35785.06337666501, "timestamp": "2025-12-19T16:54:43.918832+00:00", "meta": {"OBJECT_NAME": "XM-5", "OBJECT_ID": "2010-053A", "EPOCH": "2025-12-18T20:22:12.372384", "MEAN_MOTION": 1.00271564, "ECCENTRICITY": 0.00020077, "INCLINATION": 0.0627, "RA_OF_ASC_NODE": 271.9192, "ARG_OF_PERICENTER": 232.5831, "MEAN_ANOMALY": 133.5627, "EPHEMERIS_TYPE": 0, "CLASSIFICATION_TYPE": "U", "NORAD_CAT_ID": 37185, "ELEMENT_SET_NO": 999, "REV_AT_EPOCH": 5567, "BSTAR": 0, "MEAN_MOTION_DOT": 2e-08, "MEAN_MOTION_DDOT": 0}, "tle": {"line1": "1 37185U 10053A   25352.84875431  .00000002  00000+0  00000+0 0  9990", "line2": "2 37185   0.0627 271.9192 0002007 232.5831 133.5627  1.00271564 55671"}}, "geometry": {"type": "Point", "coordinates": [-132.94815240743523, -0.05977877603115748]}}, {"type": "Feature", "properties": {"norad_id": 37238, "name": "INTELSAT 17 (IS-17)", "group": "intelsat", "lat": 0.009209138989671134, "lon": 48.22158561446492, "alt_km": 35792.15828438855, "timestamp": "2025-12-19T16:54:43.918845+00:00", "meta": {"OBJECT_NAME": "INTELSAT 17 (IS-17)", "OBJECT_ID": "2010-065B", "EPOCH": "2025-12-19T03:18:23.996736", "MEAN_MOTION": 1.00271239, "ECCENTRICITY": 0.00027488, "INCLINATION": 0.0258, "RA_OF_ASC_NODE": 64.0761, "ARG_OF_PERICENTER": 223.5698, "MEAN_ANOMALY": 275.9182, "EPHEMERIS_TYPE": 0, "CLASSIFICATION_TYPE": "U", "NORAD_CAT_ID": 37238, "ELEMENT_SET_NO": 999, "REV_AT_EPOCH": 5144, "BSTAR": 0, "MEAN_MOTION_DOT": 0, "MEAN_MOTION_DDOT": 0}, "tle": {"line1": "1 37238U 10065B   25353.13777774  .00000000  00000+0  00000+0 0  9994", "line2": "2 37238   0.0258  64.0761 0002748 223.5698 275.9182  1.00271239 51443"}}, "geometry": {"type": "Point", "coordinates": [48.22158561446492, 0.009209138989671134]}}, {"type": "Feature", "properties": {"norad_id": 37392, "name": "INTELSAT 28 (IS-28)", "group": "intelsat", "lat": -0.9774593908086425, "lon": -49.44737804372806, "alt_km": 35774.517968184286, "timestamp": "2025-12-19T16:54:43.918857+00:00", "meta": {"OBJECT_NAME": "INTELSAT 28 (IS-28)", "OBJECT_ID": "2011-016A", "EPOCH": "2025-12-19T06:15:51.996672", "MEAN_MOTION": 1.00270298, "ECCENTRICITY": 0.00036759, "INCLINATION": 1.3406, "RA_OF_ASC_NODE": 84.9867, "ARG_OF_PERICENTER": 186.8459, "MEAN_ANOMALY": 238.5581, "EPHEMERIS_TYPE": 0, "CLASSIFICATION_TYPE": "U", "NORAD_CAT_ID": 37392, "ELEMENT_SET_NO": 999, "REV_AT_EPOCH": 5148, "BSTAR": 0, "MEAN_MOTION_DOT": -2.01e-06, "MEAN_MOTION_DDOT": 0}, "tle": {"line1": "1 37392U 11016A   25353.26101848 -.00000201  00000+0  00000+0 0  9993", "line2": "2 37392   1.3406  84.9867 0003675 186.8459 238.5581  1.00270298 51483"}}, "geometry": {"type": "Point", "coordinates": [-49.44737804372806, -0.9774593908086425]}}]}